start=new Date('2023-05-13T00:00:00.000Z').valueOf();
sats=[{"TLE_LINE1":"1 53057U 22077Q   23132.37347146  .00000275  00000-0  25981-4 0  9997","FILE":"3906381","ECCENTRICITY":"0.00033150","GP_ID":"231710222","DECAY_DATE":null,"MEAN_MOTION_DDOT":"0.0000000000000","EPOCH":"2023-05-12T08:57:47.934144","NORAD_CAT_ID":"53057","RCS_SIZE":"LARGE","COUNTRY_CODE":"US","MEAN_ELEMENT_THEORY":"SGP4","TLE_LINE2":"2 53057  97.6554 313.9690 0003315  54.0659 306.0873 15.01259473 46037","CLASSIFICATION_TYPE":"U","EPHEMERIS_TYPE":"0","OBJECT_NAME":"STARLINK-4252","APOAPSIS":"565.314","MEAN_MOTION_DOT":"0.00000275","OBJECT_TYPE":"PAYLOAD","PERIOD":"95.919","SITE":"AFWTR","CENTER_NAME":"EARTH","MEAN_ANOMALY":"306.0873","TIME_SYSTEM":"UTC","MEAN_MOTION":"15.01259473","INCLINATION":"97.6554","ELEMENT_SET_NO":"999","OBJECT_ID":"2022-077Q","ARG_OF_PERICENTER":"54.0659","REV_AT_EPOCH":"4603","LAUNCH_DATE":"2022-07-11","PERIAPSIS":"560.712","BSTAR":"0.00002598100000","RA_OF_ASC_NODE":"313.9690","SEMIMAJOR_AXIS":"6941.148","REF_FRAME":"TEME"},{"OBJECT_TYPE":"PAYLOAD","APOAPSIS":"565.105","MEAN_MOTION_DOT":"0.00000001","OBJECT_NAME":"STARLINK-4317","MEAN_MOTION":"15.01255619","MEAN_ANOMALY":"289.6287","TIME_SYSTEM":"UTC","PERIOD":"95.920","CENTER_NAME":"EARTH","SITE":"AFWTR","LAUNCH_DATE":"2022-07-11","PERIAPSIS":"560.946","ARG_OF_PERICENTER":"70.5260","REV_AT_EPOCH":"4598","OBJECT_ID":"2022-077R","INCLINATION":"97.6557","ELEMENT_SET_NO":"999","REF_FRAME":"TEME","SEMIMAJOR_AXIS":"6941.160","BSTAR":"0.00000465240000","RA_OF_ASC_NODE":"313.6450","ECCENTRICITY":"0.00029960","GP_ID":"231672906","FILE":"3905921","TLE_LINE1":"1 53058U 22077R   23132.04415914  .00000001  00000-0  46524-5 0  9995","DECAY_DATE":null,"MEAN_MOTION_DDOT":"0.0000000000000","EPOCH":"2023-05-12T01:03:35.349696","CLASSIFICATION_TYPE":"U","MEAN_ELEMENT_THEORY":"SGP4","COUNTRY_CODE":"US","TLE_LINE2":"2 53058  97.6557 313.6450 0002996  70.5260 289.6287 15.01255619 45983","NORAD_CAT_ID":"53058","RCS_SIZE":"LARGE","EPHEMERIS_TYPE":"0"},{"BSTAR":"-0.00003182100000","RA_OF_ASC_NODE":"313.7015","SEMIMAJOR_AXIS":"6941.141","REF_FRAME":"TEME","OBJECT_ID":"2022-077S","INCLINATION":"97.6551","ELEMENT_SET_NO":"999","PERIAPSIS":"561.505","LAUNCH_DATE":"2022-07-11","ARG_OF_PERICENTER":"64.4193","REV_AT_EPOCH":"4599","TIME_SYSTEM":"UTC","MEAN_ANOMALY":"295.7255","CENTER_NAME":"EARTH","SITE":"AFWTR","PERIOD":"95.919","MEAN_MOTION":"15.01261913","MEAN_MOTION_DOT":"-0.00000468","APOAPSIS":"564.507","OBJECT_NAME":"STARLINK-4320","OBJECT_TYPE":"PAYLOAD","EPHEMERIS_TYPE":"0","RCS_SIZE":"LARGE","NORAD_CAT_ID":"53059","CLASSIFICATION_TYPE":"U","TLE_LINE2":"2 53059  97.6551 313.7015 0002163  64.4193 295.7255 15.01261913 45997","MEAN_ELEMENT_THEORY":"SGP4","COUNTRY_CODE":"US","EPOCH":"2023-05-12T02:28:54.039072","DECAY_DATE":null,"MEAN_MOTION_DDOT":"0.0000000000000","TLE_LINE1":"1 53059U 22077S   23132.10340323 -.00000468  00000-0 -31821-4 0  9996","GP_ID":"231673148","ECCENTRICITY":"0.00021630","FILE":"3905921"},{"OBJECT_ID":"2022-077T","INCLINATION":"97.6555","ELEMENT_SET_NO":"999","LAUNCH_DATE":"2022-07-11","PERIAPSIS":"560.864","ARG_OF_PERICENTER":"63.4417","REV_AT_EPOCH":"4656","RA_OF_ASC_NODE":"313.6428","BSTAR":"-0.00001638100000","REF_FRAME":"TEME","SEMIMAJOR_AXIS":"6941.150","APOAPSIS":"565.166","MEAN_MOTION_DOT":"-0.00000270","OBJECT_NAME":"STARLINK-4305","OBJECT_TYPE":"PAYLOAD","MEAN_ANOMALY":"296.7125","TIME_SYSTEM":"UTC","PERIOD":"95.919","CENTER_NAME":"EARTH","SITE":"AFWTR","MEAN_MOTION":"15.01258997","NORAD_CAT_ID":"53060","RCS_SIZE":"LARGE","CLASSIFICATION_TYPE":"U","COUNTRY_CODE":"US","MEAN_ELEMENT_THEORY":"SGP4","TLE_LINE2":"2 53060  97.6555 313.6428 0003099  63.4417 296.7125 15.01258997 46566","EPHEMERIS_TYPE":"0","TLE_LINE1":"1 53060U 22077T   23132.04206307 -.00000270  00000-0 -16381-4 0  9999","ECCENTRICITY":"0.00030990","GP_ID":"231677339","FILE":"3906000","DECAY_DATE":null,"MEAN_MOTION_DDOT":"0.0000000000000","EPOCH":"2023-05-12T01:00:34.249248"},{"TLE_LINE1":"1 53061U 22077U   23132.76783062  .00000223  00000-0  21982-4 0  9996","GP_ID":"231709723","ECCENTRICITY":"0.00028400","FILE":"3906381","DECAY_DATE":null,"EPOCH":"2023-05-12T18:25:40.565568","MEAN_MOTION_DDOT":"0.0000000000000","RCS_SIZE":"LARGE","NORAD_CAT_ID":"53061","CLASSIFICATION_TYPE":"U","TLE_LINE2":"2 53061  97.6551 314.3560 0002840  46.3838 313.7621 15.01260080 46093","COUNTRY_CODE":"US","MEAN_ELEMENT_THEORY":"SGP4","EPHEMERIS_TYPE":"0","MEAN_MOTION_DOT":"0.00000223","APOAPSIS":"564.983","OBJECT_NAME":"STARLINK-4308","OBJECT_TYPE":"PAYLOAD","MEAN_ANOMALY":"313.7621","TIME_SYSTEM":"UTC","CENTER_NAME":"EARTH","SITE":"AFWTR","PERIOD":"95.919","MEAN_MOTION":"15.01260080","OBJECT_ID":"2022-077U","INCLINATION":"97.6551","ELEMENT_SET_NO":"999","PERIAPSIS":"561.040","LAUNCH_DATE":"2022-07-11","REV_AT_EPOCH":"4609","ARG_OF_PERICENTER":"46.3838","RA_OF_ASC_NODE":"314.3560","BSTAR":"0.00002198200000","SEMIMAJOR_AXIS":"6941.147","REF_FRAME":"TEME"},{"NORAD_CAT_ID":"53062","RCS_SIZE":"LARGE","MEAN_ELEMENT_THEORY":"SGP4","COUNTRY_CODE":"US","TLE_LINE2":"2 53062  97.6553 313.9667 0003237  49.9544 310.1963 15.01260198 46611","CLASSIFICATION_TYPE":"U","EPHEMERIS_TYPE":"0","TLE_LINE1":"1 53062U 22077V   23132.37161982  .00000114  00000-0  13507-4 0  9998","FILE":"3906007","ECCENTRICITY":"0.00032370","GP_ID":"231677359","DECAY_DATE":null,"EPOCH":"2023-05-12T08:55:07.952448","MEAN_MOTION_DDOT":"0.0000000000000","INCLINATION":"97.6553","ELEMENT_SET_NO":"999","OBJECT_ID":"2022-077V","REV_AT_EPOCH":"4661","ARG_OF_PERICENTER":"49.9544","LAUNCH_DATE":"2022-07-11","PERIAPSIS":"560.764","RA_OF_ASC_NODE":"313.9667","BSTAR":"0.00001350700000","SEMIMAJOR_AXIS":"6941.146","REF_FRAME":"TEME","OBJECT_NAME":"STARLINK-4311","APOAPSIS":"565.258","MEAN_MOTION_DOT":"0.00000114","OBJECT_TYPE":"PAYLOAD","PERIOD":"95.919","SITE":"AFWTR","CENTER_NAME":"EARTH","MEAN_ANOMALY":"310.1963","TIME_SYSTEM":"UTC","MEAN_MOTION":"15.01260198"},{"FILE":"3906002","ECCENTRICITY":"0.00043070","GP_ID":"231677095","TLE_LINE1":"1 53063U 22077W   23132.06452167  .00000547  00000-0  47184-4 0  9991","EPOCH":"2023-05-12T01:32:54.672288","DECAY_DATE":null,"MEAN_MOTION_DDOT":"0.0000000000000","MEAN_ELEMENT_THEORY":"SGP4","COUNTRY_CODE":"US","TLE_LINE2":"2 53063  97.6564 313.6518 0004307 147.2478 212.9014 15.01259391 46577","CLASSIFICATION_TYPE":"U","NORAD_CAT_ID":"53063","RCS_SIZE":"LARGE","EPHEMERIS_TYPE":"0","OBJECT_TYPE":"PAYLOAD","OBJECT_NAME":"STARLINK-4307","APOAPSIS":"566.003","MEAN_MOTION_DOT":"0.00000547","MEAN_MOTION":"15.01259391","PERIOD":"95.919","CENTER_NAME":"EARTH","SITE":"AFWTR","TIME_SYSTEM":"UTC","MEAN_ANOMALY":"212.9014","ARG_OF_PERICENTER":"147.2478","REV_AT_EPOCH":"4657","LAUNCH_DATE":"2022-07-11","PERIAPSIS":"560.024","INCLINATION":"97.6564","ELEMENT_SET_NO":"999","OBJECT_ID":"2022-077W","SEMIMAJOR_AXIS":"6941.149","REF_FRAME":"TEME","RA_OF_ASC_NODE":"313.6518","BSTAR":"0.00004718400000"},{"BSTAR":"0.00003207100000","RA_OF_ASC_NODE":"313.9641","REF_FRAME":"TEME","SEMIMAJOR_AXIS":"6941.152","OBJECT_ID":"2022-077X","ELEMENT_SET_NO":"999","INCLINATION":"97.6552","LAUNCH_DATE":"2022-07-11","PERIAPSIS":"560.759","REV_AT_EPOCH":"4603","ARG_OF_PERICENTER":"45.6399","MEAN_ANOMALY":"314.5091","TIME_SYSTEM":"UTC","PERIOD":"95.920","SITE":"AFWTR","CENTER_NAME":"EARTH","MEAN_MOTION":"15.01258348","APOAPSIS":"565.275","MEAN_MOTION_DOT":"0.00000353","OBJECT_NAME":"STARLINK-4313","OBJECT_TYPE":"PAYLOAD","EPHEMERIS_TYPE":"0","NORAD_CAT_ID":"53064","RCS_SIZE":"LARGE","CLASSIFICATION_TYPE":"U","COUNTRY_CODE":"US","MEAN_ELEMENT_THEORY":"SGP4","TLE_LINE2":"2 53064  97.6552 313.9641 0003253  45.6399 314.5091 15.01258348 46033","EPOCH":"2023-05-12T08:52:28.027776","DECAY_DATE":null,"MEAN_MOTION_DDOT":"0.0000000000000","TLE_LINE1":"1 53064U 22077X   23132.36976884  .00000353  00000-0  32071-4 0  9996","ECCENTRICITY":"0.00032530","GP_ID":"231709476","FILE":"3906381"},{"PERIAPSIS":"561.383","LAUNCH_DATE":"2022-07-11","REV_AT_EPOCH":"4657","ARG_OF_PERICENTER":"38.1910","OBJECT_ID":"2022-077Y","INCLINATION":"97.6545","ELEMENT_SET_NO":"999","SEMIMAJOR_AXIS":"6941.086","REF_FRAME":"TEME","RA_OF_ASC_NODE":"313.6942","BSTAR":"-0.00039815000000","OBJECT_TYPE":"PAYLOAD","MEAN_MOTION_DOT":"-0.00005172","APOAPSIS":"564.520","OBJECT_NAME":"STARLINK-4312","MEAN_MOTION":"15.01279629","MEAN_ANOMALY":"321.9474","TIME_SYSTEM":"UTC","CENTER_NAME":"EARTH","SITE":"AFWTR","PERIOD":"95.918","CLASSIFICATION_TYPE":"U","TLE_LINE2":"2 53065  97.6545 313.6942 0002260  38.1910 321.9474 15.01279629 46571","COUNTRY_CODE":"US","MEAN_ELEMENT_THEORY":"SGP4","RCS_SIZE":"LARGE","NORAD_CAT_ID":"53065","EPHEMERIS_TYPE":"0","GP_ID":"231677120","ECCENTRICITY":"0.00022600","FILE":"3906008","TLE_LINE1":"1 53065U 22077Y   23132.09759540 -.00005172  00000-0 -39815-3 0  9993","EPOCH":"2023-05-12T02:20:32.242560","DECAY_DATE":null,"MEAN_MOTION_DDOT":"0.0000000000000"},{"FILE":"3906381","GP_ID":"231710475","ECCENTRICITY":"0.00025270","TLE_LINE1":"1 53066U 22077Z   23132.76597817  .00000031  00000-0  70416-5 0  9996","DECAY_DATE":null,"EPOCH":"2023-05-12T18:23:00.513888","MEAN_MOTION_DDOT":"0.0000000000000","TLE_LINE2":"2 53066  97.6550 314.3533 0002527  26.4667 333.6686 15.01257026 46096","MEAN_ELEMENT_THEORY":"SGP4","COUNTRY_CODE":"US","CLASSIFICATION_TYPE":"U","RCS_SIZE":"LARGE","NORAD_CAT_ID":"53066","EPHEMERIS_TYPE":"0","OBJECT_TYPE":"PAYLOAD","OBJECT_NAME":"STARLINK-4309","MEAN_MOTION_DOT":"0.00000031","APOAPSIS":"564.775","MEAN_MOTION":"15.01257026","SITE":"AFWTR","CENTER_NAME":"EARTH","PERIOD":"95.920","TIME_SYSTEM":"UTC","MEAN_ANOMALY":"333.6686","REV_AT_EPOCH":"4609","ARG_OF_PERICENTER":"26.4667","PERIAPSIS":"561.267","LAUNCH_DATE":"2022-07-11","ELEMENT_SET_NO":"999","INCLINATION":"97.6550","OBJECT_ID":"2022-077Z","REF_FRAME":"TEME","SEMIMAJOR_AXIS":"6941.156","RA_OF_ASC_NODE":"314.3533","BSTAR":"0.00000704160000"}];
